CTC2_L_00351001-01
1 11047U 22740NT  26070.40846065  .00000000  00000+0  00000-0 0  9995
2 11047 100.0000   0.0000 0000000   0.0000   0.0000 13.42494874    13
CTC2_L_00351001-02
1 11048U 25048RM  26070.40846065  .00000000  00000+0  00000-0 0  9990
2 11048 100.0000   0.0000 0000000   0.0000  90.0000 13.42494874    13
CTC2_L_00351001-03
1 11049U 22649M   26070.40846065  .00000000  00000+0  00000-0 0  9995
2 11049 100.0000   0.0000 0000000   0.0000 180.0000 13.42494874    14
CTC2_L_00351001-04
1 11050U 23139TA  26070.40846065  .00000000  00000+0  00000-0 0  9992
2 11050 100.0000   0.0000 0000000   0.0000 270.0000 13.42494874    16
CTC2_L_00351002-01
1 11051U 25981IL  26070.40846065  .00000000  00000+0  00000-0 0  9990
2 11051 100.0000  12.0000 0000000   0.0000  12.0000 13.42494874    14
CTC2_L_00351002-02
1 11052U 25549UL  26070.40846065  .00000000  00000+0  00000-0 0  9991
2 11052 100.0000  12.0000 0000000   0.0000 102.0000 13.42494874    15
CTC2_L_00351002-03
1 11053U 24734JB  26070.40846065  .00000000  00000+0  00000-0 0  9997
2 11053 100.0000  12.0000 0000000   0.0000 192.0000 13.42494874    15
CTC2_L_00351002-04
1 11054U 22022VK  26070.40846065  .00000000  00000+0  00000-0 0  9996
2 11054 100.0000  12.0000 0000000   0.0000 282.0000 13.42494874    16
CTC2_L_00351003-01
1 11055U 23803KD  26070.40846065  .00000000  00000+0  00000-0 0  9995
2 11055 100.0000  24.0000 0000000   0.0000  24.0000 13.42494874    14
CTC2_L_00351003-02
1 11056U 23060LX  26070.40846065  .00000000  00000+0  00000-0 0  9991
2 11056 100.0000  24.0000 0000000   0.0000 114.0000 13.42494874    15
CTC2_L_00351003-03
1 11057U 25423AO  26070.40846065  .00000000  00000+0  00000-0 0  9997
2 11057 100.0000  24.0000 0000000   0.0000 204.0000 13.42494874    16
CTC2_L_00351003-04
1 11058U 25057GQ  26070.40846065  .00000000  00000+0  00000-0 0  9991
2 11058 100.0000  24.0000 0000000   0.0000 294.0000 13.42494874    16
CTC2_L_00351004-01
1 11059U 25355GO  26070.40846065  .00000000  00000+0  00000-0 0  9993
2 11059 100.0000  36.0000 0000000   0.0000  36.0000 13.42494874    14
CTC2_L_00351004-02
1 11060U 25710YZ  26070.40846065  .00000000  00000+0  00000-0 0  9990
2 11060 100.0000  36.0000 0000000   0.0000 126.0000 13.42494874    16
CTC2_L_00351004-03
1 11061U 22383FG  26070.40846065  .00000000  00000+0  00000-0 0  9994
2 11061 100.0000  36.0000 0000000   0.0000 216.0000 13.42494874    17
CTC2_L_00351004-04
1 11062U 24497SZ  26070.40846065  .00000000  00000+0  00000-0 0  9993
2 11062 100.0000  36.0000 0000000   0.0000 306.0000 13.42494874    18
CTC2_L_00351005-01
1 11063U 24508UZ  26070.40846065  .00000000  00000+0  00000-0 0  9997
2 11063 100.0000  48.0000 0000000   0.0000  48.0000 13.42494874    15
CTC2_L_00351005-02
1 11064U 25614WT  26070.40846065  .00000000  00000+0  00000-0 0  9997
2 11064 100.0000  48.0000 0000000   0.0000 138.0000 13.42494874    16
CTC2_L_00351005-03
1 11065U 26744DU  26070.40846065  .00000000  00000+0  00000-0 0  9993
2 11065 100.0000  48.0000 0000000   0.0000 228.0000 13.42494874    17
CTC2_L_00351005-04
1 11066U 24730PM  26070.40846065  .00000000  00000+0  00000-0 0  9997
2 11066 100.0000  48.0000 0000000   0.0000 318.0000 13.42494874    18
CTC2_L_00351006-01
1 11067U 26918XI  26070.40846065  .00000000  00000+0  00000-0 0  9998
2 11067 100.0000  60.0000 0000000   0.0000  60.0000 13.42494874    17
CTC2_L_00351006-02
1 11068U 23513ZR  26070.40846065  .00000000  00000+0  00000-0 0  9997
2 11068 100.0000  60.0000 0000000   0.0000 150.0000 13.42494874    18
CTC2_L_00351006-03
1 11069U 23648QF  26070.40846065  .00000000  00000+0  00000-0 0  9997
2 11069 100.0000  60.0000 0000000   0.0000 240.0000 13.42494874    19
CTC2_L_00351006-04
1 11070U 22866ZD  26070.40846065  .00000000  00000+0  00000-0 0  9990
2 11070 100.0000  60.0000 0000000   0.0000 330.0000 13.42494874    11
CTC2_L_00351007-01
1 11071U 26627RQ  26070.40846065  .00000000  00000+0  00000-0 0  9990
2 11071 100.0000  72.0000 0000000   0.0000  72.0000 13.42494874    18
CTC2_L_00351007-02
1 11072U 23600TU  26070.40846065  .00000000  00000+0  00000-0 0  9999
2 11072 100.0000  72.0000 0000000   0.0000 162.0000 13.42494874    19
CTC2_L_00351007-03
1 11073U 23286OQ  26070.40846065  .00000000  00000+0  00000-0 0  9990
2 11073 100.0000  72.0000 0000000   0.0000 252.0000 13.42494874    10
CTC2_L_00351007-04
1 11074U 25400FH  26070.40846065  .00000000  00000+0  00000-0 0  9991
2 11074 100.0000  72.0000 0000000   0.0000 342.0000 13.42494874    11
CTC2_L_00351008-01
1 11075U 24120VY  26070.40846065  .00000000  00000+0  00000-0 0  9990
2 11075 100.0000  84.0000 0000000   0.0000  84.0000 13.42494874    18
CTC2_L_00351008-02
1 11076U 25769NY  26070.40846065  .00000000  00000+0  00000-0 0  9991
2 11076 100.0000  84.0000 0000000   0.0000 174.0000 13.42494874    19
CTC2_L_00351008-03
1 11077U 24660PU  26070.40846065  .00000000  00000+0  00000-0 0  9991
2 11077 100.0000  84.0000 0000000   0.0000 264.0000 13.42494874    10
CTC2_L_00351008-04
1 11078U 23061RC  26070.40846065  .00000000  00000+0  00000-0 0  9996
2 11078 100.0000  84.0000 0000000   0.0000 354.0000 13.42494874    11
CTC2_L_00351009-01
1 11079U 23305ZQ  26070.40846065  .00000000  00000+0  00000-0 0  9998
2 11079 100.0000  96.0000 0000000   0.0000  96.0000 13.42494874    18
CTC2_L_00351009-02
1 11080U 25967DR  26070.40846065  .00000000  00000+0  00000-0 0  9996
2 11080 100.0000  96.0000 0000000   0.0000 186.0000 13.42494874    10
CTC2_L_00351009-03
1 11081U 23260ZA  26070.40846065  .00000000  00000+0  00000-0 0  9991
2 11081 100.0000  96.0000 0000000   0.0000 276.0000 13.42494874    11
CTC2_L_00351009-04
1 11082U 25993QU  26070.40846065  .00000000  00000+0  00000-0 0  9997
2 11082 100.0000  96.0000 0000000   0.0000   6.0000 13.42494874    13
CTC2_L_00351010-01
1 11083U 25440JE  26070.40846065  .00000000  00000+0  00000-0 0  9995
2 11083 100.0000 108.0000 0000000   0.0000 108.0000 13.42494874    11
CTC2_L_00351010-02
1 11084U 25341KI  26070.40846065  .00000000  00000+0  00000-0 0  9996
2 11084 100.0000 108.0000 0000000   0.0000 198.0000 13.42494874    11
CTC2_L_00351010-03
1 11085U 25934DG  26070.40846065  .00000000  00000+0  00000-0 0  9995
2 11085 100.0000 108.0000 0000000   0.0000 288.0000 13.42494874    12
CTC2_L_00351010-04
1 11086U 22757LK  26070.40846065  .00000000  00000+0  00000-0 0  9996
2 11086 100.0000 108.0000 0000000   0.0000  18.0000 13.42494874    14
CTC2_L_00351011-01
1 11087U 24456LZ  26070.40846065  .00000000  00000+0  00000-0 0  9995
2 11087 100.0000 120.0000 0000000   0.0000 120.0000 13.42494874    13
CTC2_L_00351011-02
1 11088U 22158OQ  26070.40846065  .00000000  00000+0  00000-0 0  9993
2 11088 100.0000 120.0000 0000000   0.0000 210.0000 13.42494874    14
CTC2_L_00351011-03
1 11089U 23533JY  26070.40846065  .00000000  00000+0  00000-0 0  9992
2 11089 100.0000 120.0000 0000000   0.0000 300.0000 13.42494874    15
CTC2_L_00351011-04
1 11090U 26315SJ  26070.40846065  .00000000  00000+0  00000-0 0  9995
2 11090 100.0000 120.0000 0000000   0.0000  30.0000 13.42494874    17
CTC2_L_00351012-01
1 11091U 24576K   26070.40846065  .00000000  00000+0  00000-0 0  9993
2 11091 100.0000 132.0000 0000000   0.0000 132.0000 13.42494874    14
CTC2_L_00351012-02
1 11092U 25321ZK  26070.40846065  .00000000  00000+0  00000-0 0  9993
2 11092 100.0000 132.0000 0000000   0.0000 222.0000 13.42494874    15
CTC2_L_00351012-03
1 11093U 23941WG  26070.40846065  .00000000  00000+0  00000-0 0  9990
2 11093 100.0000 132.0000 0000000   0.0000 312.0000 13.42494874    16
CTC2_L_00351012-04
1 11094U 23973KU  26070.40846065  .00000000  00000+0  00000-0 0  9996
2 11094 100.0000 132.0000 0000000   0.0000  42.0000 13.42494874    17
CTC2_L_00351013-01
1 11095U 24854GA  26070.40846065  .00000000  00000+0  00000-0 0  9996
2 11095 100.0000 144.0000 0000000   0.0000 144.0000 13.42494874    14
CTC2_L_00351013-02
1 11096U 25876HW  26070.40846065  .00000000  00000+0  00000-0 0  9992
2 11096 100.0000 144.0000 0000000   0.0000 234.0000 13.42494874    15
CTC2_L_00351013-03
1 11097U 25717TR  26070.40846065  .00000000  00000+0  00000-0 0  9997
2 11097 100.0000 144.0000 0000000   0.0000 324.0000 13.42494874    16
CTC2_L_00351013-04
1 11098U 24751MR  26070.40846065  .00000000  00000+0  00000-0 0  9995
2 11098 100.0000 144.0000 0000000   0.0000  54.0000 13.42494874    17
CTC2_L_00351014-01
1 11099U 25280FR  26070.40846065  .00000000  00000+0  00000-0 0  9994
2 11099 100.0000 156.0000 0000000   0.0000 156.0000 13.42494874    14
CTC2_L_00351014-02
1 11100U 22384YJ  26070.40846065  .00000000  00000+0  00000-0 0  9999
2 11100 100.0000 156.0000 0000000   0.0000 246.0000 13.42494874    17
CTC2_L_00351014-03
1 11101U 24514NM  26070.40846065  .00000000  00000+0  00000-0 0  9997
2 11101 100.0000 156.0000 0000000   0.0000 336.0000 13.42494874    18
CTC2_L_00351014-04
1 11102U 26212BU  26070.40846065  .00000000  00000+0  00000-0 0  9995
2 11102 100.0000 156.0000 0000000   0.0000  66.0000 13.42494874    19
CTC2_L_00351015-01
1 11103U 26443CI  26070.40846065  .00000000  00000+0  00000-0 0  9992
2 11103 100.0000 168.0000 0000000   0.0000 168.0000 13.42494874    16
CTC2_L_00351015-02
1 11104U 26810BI  26070.40846065  .00000000  00000+0  00000-0 0  9991
2 11104 100.0000 168.0000 0000000   0.0000 258.0000 13.42494874    17
CTC2_L_00351015-03
1 11105U 22854HZ  26070.40846065  .00000000  00000+0  00000-0 0  9996
2 11105 100.0000 168.0000 0000000   0.0000 348.0000 13.42494874    18
CTC2_L_00351015-04
1 11106U 22143TL  26070.40846065  .00000000  00000+0  00000-0 0  9998
2 11106 100.0000 168.0000 0000000   0.0000  78.0000 13.42494874    19
CTC2_L_00351016-01
1 11107U 26659YC  26070.40846065  .00000000  00000+0  00000-0 0  9995
2 11107 100.0000 180.0000 0000000   0.0000 180.0000 13.42494874    18
CTC2_L_00351016-02
1 11108U 24647JP  26070.40846065  .00000000  00000+0  00000-0 0  9991
2 11108 100.0000 180.0000 0000000   0.0000 270.0000 13.42494874    19
